STARLINK-2640           
1 48438U 21040L   26068.60036372 -.00001640  00000+0 -43242-4 0  9994
2 48438  53.1614 178.5516 0001313 101.7089 258.4059 15.30197527266665
KUIPER-00208            
1 67775U 26030M   26068.67231509  .00043852  00000+0  13883-2 0  9994
2 67775  51.8846 219.6993 0015525  57.3146 302.9333 15.32208734  5080
